STARLINK-1032
1 24737C 19074AA  21325.13248810  .00004946  00000-0  33134-3 0  3259
2 24737  53.0554  52.6452 0001195  75.3024 254.8768 15.06401884    18
